{"type": "FeatureCollection", "features": [ {"type": "Feature", "properties": {"norad_id": 38755, "name": "SPOT 6", "group": "resource", "lat": 79.66697082009833, "lon": -5.397545537509717, "alt_km": 689.600740799603, "timestamp": "2025-12-07T14:37:04.866286+00:00", "meta": {"OBJECT_NAME": "SPOT 6", "OBJECT_ID": "2012-047A", "EPOCH": "2025-12-06T21:46:19.456896", "MEAN_MOTION": 14.5859481, "ECCENTRICITY": 0.00010684, "INCLINATION": 98.1581, "RA_OF_ASC_NODE": 45.7989, "ARG_OF_PERICENTER": 101.6728, "MEAN_ANOMALY": 258.4591, "EPHEMERIS_TYPE": 0, "CLASSIFICATION_TYPE": "U", "NORAD_CAT_ID": 38755, "ELEMENT_SET_NO": 999, "REV_AT_EPOCH": 70502, "BSTAR": 0.00018104048, "MEAN_MOTION_DOT": 7.97e-06, "MEAN_MOTION_DDOT": 0}, "tle": {"line1": "1 38755U 12047A   25340.90716964  .00000797  00000+0  18104-3 0  9997", "line2": "2 38755  98.1581  45.7989 0001068 101.6728 258.4591 14.58594810705027"}}, "geometry": {"type": "Point", "coordinates": [-5.397545537509717, 79.66697082009833]}}, {"type": "Feature", "properties": {"norad_id": 39019, "name": "PLEIADES 1B", "group": "resource", "lat": -16.814398361637075, "lon": 56.83303988341152, "alt_km": 702.9418481380526, "timestamp": "2025-12-07T14:37:04.866297+00:00", "meta": {"OBJECT_NAME": "PLEIADES 1B", "OBJECT_ID": "2012-068A", "EPOCH": "2025-12-06T22:13:52.418496", "MEAN_MOTION": 14.58544255, "ECCENTRICITY": 0.00012216, "INCLINATION": 98.1802, "RA_OF_ASC_NODE": 53.6697, "ARG_OF_PERICENTER": 87.2118, "MEAN_ANOMALY": 272.9221, "EPHEMERIS_TYPE": 0, "CLASSIFICATION_TYPE": "U", "NORAD_CAT_ID": 39019, "ELEMENT_SET_NO": 999, "REV_AT_EPOCH": 69282, "BSTAR": 0.0001856108, "MEAN_MOTION_DOT": 8.17e-06, "MEAN_MOTION_DDOT": 0}, "tle": {"line1": "1 39019U 12068A   25340.92630114  .00000817  00000+0  18561-3 0  9998", "line2": "2 39019  98.1802  53.6697 0001221  87.2118 272.9221 14.58544255692826"}}, "geometry": {"type": "Point", "coordinates": [56.83303988341152, -16.814398361637075]}}, {"type": "Feature", "properties": {"norad_id": 39030, "name": "GOKTURK 2", "group": "resource", "lat": -68.67286721638308, "lon": -16.733846647103814, "alt_km": 652.0664118322184, "timestamp": "2025-12-07T14:37:04.866307+00:00", "meta": {"OBJECT_NAME": "GOKTURK 2", "OBJECT_ID": "2012-073A", "EPOCH": "2025-12-06T19:34:56.533440", "MEAN_MOTION": 14.75278858, "ECCENTRICITY": 8.661e-05, "INCLINATION": 97.6904, "RA_OF_ASC_NODE": 182.7608, "ARG_OF_PERICENTER": 102.0163, "MEAN_ANOMALY": 258.1144, "EPHEMERIS_TYPE": 0, "CLASSIFICATION_TYPE": "U", "NORAD_CAT_ID": 39030, "ELEMENT_SET_NO": 999, "REV_AT_EPOCH": 69614, "BSTAR": 0.00018711788, "MEAN_MOTION_DOT": 1.22e-05, "MEAN_MOTION_DDOT": 0}, "tle": {"line1": "1 39030U 12073A   25340.81593210  .00001220  00000+0  18712-3 0  9997", "line2": "2 39030  97.6904 182.7608 0000866 102.0163 258.1144 14.75278858696143"}}, "geometry": {"type": "Point", "coordinates": [-16.733846647103814, -68.67286721638308]}}, {"type": "Feature", "properties": {"norad_id": 39084, "name": "LANDSAT 8", "group": "resource", "lat": 0.16602740087933068, "lon": -130.21793485829406, "alt_km": 705.5726489670942, "timestamp": "2025-12-07T14:37:04.866317+00:00", "meta": {"OBJECT_NAME": "LANDSAT 8", "OBJECT_ID": "2013-008A", "EPOCH": "2025-12-06T21:18:54.749088", "MEAN_MOTION": 14.57105139, "ECCENTRICITY": 0.00011428, "INCLINATION": 98.2079, "RA_OF_ASC_NODE": 49.0478, "ARG_OF_PERICENTER": 86.2222, "MEAN_ANOMALY": 273.9107, "EPHEMERIS_TYPE": 0, "CLASSIFICATION_TYPE": "U", "NORAD_CAT_ID": 39084, "ELEMENT_SET_NO": 999, "REV_AT_EPOCH": 66989, "BSTAR": 0.00018514152, "MEAN_MOTION_DOT": 7.89e-06, "MEAN_MOTION_DDOT": 0}, "tle": {"line1": "1 39084U 13008A   25340.88813367  .00000789  00000+0  18514-3 0  9999", "line2": "2 39084  98.2079  49.0478 0001142  86.2222 273.9107 14.57105139669896"}}, "geometry": {"type": "Point", "coordinates": [-130.21793485829406, 0.16602740087933068]}}, {"type": "Feature", "properties": {"norad_id": 39086, "name": "SARAL", "group": "resource", "lat": -72.36629263468997, "lon": -42.64356825333866, "alt_km": 791.2489394985223, "timestamp": "2025-12-07T14:37:04.866328+00:00", "meta": {"OBJECT_NAME": "SARAL", "OBJECT_ID": "2013-009A", "EPOCH": "2025-12-06T22:20:58.095744", "MEAN_MOTION": 14.32753952, "ECCENTRICITY": 0.00027331, "INCLINATION": 98.5506, "RA_OF_ASC_NODE": 164.9374, "ARG_OF_PERICENTER": 119.6027, "MEAN_ANOMALY": 240.5429, "EPHEMERIS_TYPE": 0, "CLASSIFICATION_TYPE": "U", "NORAD_CAT_ID": 39086, "ELEMENT_SET_NO": 999, "REV_AT_EPOCH": 66807, "BSTAR": 0.00010999326, "MEAN_MOTION_DOT": 2.56e-06, "MEAN_MOTION_DDOT": 0}, "tle": {"line1": "1 39086U 13009A   25340.93122796  .00000256  00000+0  10999-3 0  9995", "line2": "2 39086  98.5506 164.9374 0002733 119.6027 240.5429 14.32753952668070"}}, "geometry": {"type": "Point", "coordinates": [-42.64356825333866, -72.36629263468997]}}, {"type": "Feature", "properties": {"norad_id": 39150, "name": "GAOFEN-1", "group": "resource", "lat": -54.166078505018916, "lon": 63.493245955040294, "alt_km": 657.7735590316806, "timestamp": "2025-12-07T14:37:04.866338+00:00", "meta": {"OBJECT_NAME": "GAOFEN-1", "OBJECT_ID": "2013-018A", "EPOCH": "2025-12-06T22:36:10.619712", "MEAN_MOTION": 14.76518229, "ECCENTRICITY": 0.00178906, "INCLINATION": 97.9334, "RA_OF_ASC_NODE": 51.7034, "ARG_OF_PERICENTER": 161.1598, "MEAN_ANOMALY": 199.0278, "EPHEMERIS_TYPE": 0, "CLASSIFICATION_TYPE": "U", "NORAD_CAT_ID": 39150, "ELEMENT_SET_NO": 999, "REV_AT_EPOCH": 67987, "BSTAR": 0.00022832459, "MEAN_MOTION_DOT": 1.544e-05, "MEAN_MOTION_DDOT": 0}, "tle": {"line1": "1 39150U 13018A   25340.94178958  .00001544  00000+0  22832-3 0  9999", "line2": "2 39150  97.9334  51.7034 0017890 161.1598 199.0278 14.76518229679879"}}, "geometry": {"type": "Point", "coordinates": [63.493245955040294, -54.166078505018916]}}, {"type": "Feature", "properties": {"norad_id": 39160, "name": "VNREDSAT 1", "group": "resource", "lat": -41.276373295963644, "lon": -149.97155121369508, "alt_km": 684.6641884227092, "timestamp": "2025-12-07T14:37:04.866348+00:00", "meta": {"OBJECT_NAME": "VNREDSAT 1", "OBJECT_ID": "2013-021B", "EPOCH": "2025-12-06T21:12:58.256640", "MEAN_MOTION": 14.64909273, "ECCENTRICITY": 0.00013218, "INCLINATION": 97.9381, "RA_OF_ASC_NODE": 36.364, "ARG_OF_PERICENTER": 83.1157, "MEAN_ANOMALY": 277.0197, "EPHEMERIS_TYPE": 0, "CLASSIFICATION_TYPE": "U", "NORAD_CAT_ID": 39160, "ELEMENT_SET_NO": 999, "REV_AT_EPOCH": 67213, "BSTAR": 0.0002494949, "MEAN_MOTION_DOT": 1.288e-05, "MEAN_MOTION_DDOT": 0}, "tle": {"line1": "1 39160U 13021B   25340.88400760  .00001288  00000+0  24949-3 0  9992", "line2": "2 39160  97.9381  36.3640 0001321  83.1157 277.0197 14.64909273672139"}}, "geometry": {"type": "Point", "coordinates": [-149.97155121369508, -41.276373295963644]}}, {"type": "Feature", "properties": {"norad_id": 39227, "name": "ARIRANG-5 (KOMPSAT-5)", "group": "resource", "lat": -68.64162005903232, "lon": -174.0077673535728, "alt_km": 562.3741307787632, "timestamp": "2025-12-07T14:37:04.866359+00:00", "meta": {"OBJECT_NAME": "ARIRANG-5 (KOMPSAT-5)", "OBJECT_ID": "2013-042A", "EPOCH": "2025-12-06T21:22:14.365920", "MEAN_MOTION": 15.0452254, "ECCENTRICITY": 0.00039492, "INCLINATION": 97.615, "RA_OF_ASC_NODE": 165.2783, "ARG_OF_PERICENTER": 73.6348, "MEAN_ANOMALY": 286.5312, "EPHEMERIS_TYPE": 0, "CLASSIFICATION_TYPE": "U", "NORAD_CAT_ID": 39227, "ELEMENT_SET_NO": 999, "REV_AT_EPOCH": 67494, "BSTAR": 0.0001905071, "MEAN_MOTION_DOT": 2.608e-05, "MEAN_MOTION_DDOT": 0}, "tle": {"line1": "1 39227U 13042A   25340.89044405  .00002608  00000+0  19051-3 0  9995", "line2": "2 39227  97.6150 165.2783 0003949  73.6348 286.5312 15.04522540674946"}}, "geometry": {"type": "Point", "coordinates": [-174.0077673535728, -68.64162005903232]}}, {"type": "Feature", "properties": {"norad_id": 39418, "name": "SKYSAT-A", "group": "resource", "lat": 7.234654953265053, "lon": -147.0795616974444, "alt_km": 531.8516783003606, "timestamp": "2025-12-07T14:37:04.866370+00:00", "meta": {"OBJECT_NAME": "SKYSAT-A", "OBJECT_ID": "2013-066C", "EPOCH": "2025-12-06T20:22:41.317248", "MEAN_MOTION": 15.11536644, "ECCENTRICITY": 0.00205533, "INCLINATION": 97.411, "RA_OF_ASC_NODE": 31.2368, "ARG_OF_PERICENTER": 258.357, "MEAN_ANOMALY": 101.5354, "EPHEMERIS_TYPE": 0, "CLASSIFICATION_TYPE": "U", "NORAD_CAT_ID": 39418, "ELEMENT_SET_NO": 999, "REV_AT_EPOCH": 65941, "BSTAR": 0.00032311569, "MEAN_MOTION_DOT": 5.441e-05, "MEAN_MOTION_DDOT": 0}, "tle": {"line1": "1 39418U 13066C   25340.84908932  .00005441  00000+0  32312-3 0  9995", "line2": "2 39418  97.4110  31.2368 0020553 258.3570 101.5354 15.11536644659417"}}, "geometry": {"type": "Point", "coordinates": [-147.0795616974444, 7.234654953265053]}}, {"type": "Feature", "properties": {"norad_id": 39419, "name": "DUBAISAT-2", "group": "resource", "lat": 14.72789930222657, "lon": -29.794914183775703, "alt_km": 536.1242435102668, "timestamp": "2025-12-07T14:37:04.866381+00:00", "meta": {"OBJECT_NAME": "DUBAISAT-2", "OBJECT_ID": "2013-066D", "EPOCH": "2025-12-06T22:37:48.753696", "MEAN_MOTION": 15.08269005, "ECCENTRICITY": 0.00111209, "INCLINATION": 97.444, "RA_OF_ASC_NODE": 331.5292, "ARG_OF_PERICENTER": 342.1586, "MEAN_ANOMALY": 17.925, "EPHEMERIS_TYPE": 0, "CLASSIFICATION_TYPE": "U", "NORAD_CAT_ID": 39419, "ELEMENT_SET_NO": 999, "REV_AT_EPOCH": 65739, "BSTAR": 0.00050359972, "MEAN_MOTION_DOT": 7.757e-05, "MEAN_MOTION_DDOT": 0}, "tle": {"line1": "1 39419U 13066D   25340.94292539  .00007757  00000+0  50360-3 0  9991", "line2": "2 39419  97.4440 331.5292 0011120 342.1586  17.9250 15.08269005657395"}}, "geometry": {"type": "Point", "coordinates": [-29.794914183775703, 14.72789930222657]}}]}